{"fetched_at":"2026-07-18T17:29:33.239Z","source":"https://celestrak.org/NORAD/elements/gp.php?GROUP=planet&FORMAT=JSON","constellation":"pelican","records":[{"OBJECT_NAME":"PELICAN-1","OBJECT_ID":"2023-174AS","EPOCH":"2026-07-16T20:07:31.845792","CLASSIFICATION_TYPE":"U","MEAN_MOTION":15.72084807,"ECCENTRICITY":0.00057855,"INCLINATION":97.4017,"RA_OF_ASC_NODE":300.0203,"ARG_OF_PERICENTER":199.5806,"MEAN_ANOMALY":160.5236,"EPHEMERIS_TYPE":0,"NORAD_CAT_ID":58296,"ELEMENT_SET_NO":999,"REV_AT_EPOCH":15082,"BSTAR":0.000050104383,"MEAN_MOTION_DOT":0.00006429,"MEAN_MOTION_DDOT":0},{"OBJECT_NAME":"PELICAN-2","OBJECT_ID":"2025-009Y","EPOCH":"2026-07-17T19:57:51.857280","CLASSIFICATION_TYPE":"U","MEAN_MOTION":15.406351,"ECCENTRICITY":0.00026824,"INCLINATION":97.2039,"RA_OF_ASC_NODE":289.3472,"ARG_OF_PERICENTER":112.6931,"MEAN_ANOMALY":247.46,"EPHEMERIS_TYPE":0,"NORAD_CAT_ID":62631,"ELEMENT_SET_NO":999,"REV_AT_EPOCH":8427,"BSTAR":0.000001822319,"MEAN_MOTION_DOT":-6e-8,"MEAN_MOTION_DDOT":0},{"OBJECT_NAME":"PELICAN-3","OBJECT_ID":"2025-188A","EPOCH":"2026-07-18T03:39:11.442528","CLASSIFICATION_TYPE":"U","MEAN_MOTION":15.41306176,"ECCENTRICITY":0.00019757,"INCLINATION":97.1983,"RA_OF_ASC_NODE":274.846,"ARG_OF_PERICENTER":117.9707,"MEAN_ANOMALY":242.174,"EPHEMERIS_TYPE":0,"NORAD_CAT_ID":65315,"ELEMENT_SET_NO":999,"REV_AT_EPOCH":5008,"BSTAR":0.0001303728,"MEAN_MOTION_DOT":0.00005346,"MEAN_MOTION_DDOT":0},{"OBJECT_NAME":"PELICAN-4","OBJECT_ID":"2025-188B","EPOCH":"2026-07-18T04:09:33.026688","CLASSIFICATION_TYPE":"U","MEAN_MOTION":15.40357139,"ECCENTRICITY":0.00015303,"INCLINATION":97.1991,"RA_OF_ASC_NODE":275.0138,"ARG_OF_PERICENTER":72.5905,"MEAN_ANOMALY":287.5509,"EPHEMERIS_TYPE":0,"NORAD_CAT_ID":65316,"ELEMENT_SET_NO":999,"REV_AT_EPOCH":5008,"BSTAR":0.00012407497,"MEAN_MOTION_DOT":0.00004926,"MEAN_MOTION_DDOT":0},{"OBJECT_NAME":"PELICAN-5","OBJECT_ID":"2025-276B","EPOCH":"2026-07-17T11:01:50.416320","CLASSIFICATION_TYPE":"U","MEAN_MOTION":15.32656374,"ECCENTRICITY":0.0001514,"INCLINATION":97.4143,"RA_OF_ASC_NODE":273.4342,"ARG_OF_PERICENTER":15.2808,"MEAN_ANOMALY":344.8479,"EPHEMERIS_TYPE":0,"NORAD_CAT_ID":66667,"ELEMENT_SET_NO":999,"REV_AT_EPOCH":3515,"BSTAR":0.00033735,"MEAN_MOTION_DOT":0.00010564,"MEAN_MOTION_DDOT":0},{"OBJECT_NAME":"PELICAN-6","OBJECT_ID":"2025-276AP","EPOCH":"2026-07-17T18:54:47.706624","CLASSIFICATION_TYPE":"U","MEAN_MOTION":15.31500068,"ECCENTRICITY":0.00018583,"INCLINATION":97.3719,"RA_OF_ASC_NODE":273.754,"ARG_OF_PERICENTER":36.2216,"MEAN_ANOMALY":323.9151,"EPHEMERIS_TYPE":0,"NORAD_CAT_ID":66703,"ELEMENT_SET_NO":999,"REV_AT_EPOCH":3521,"BSTAR":0.00027590805,"MEAN_MOTION_DOT":0.00008317,"MEAN_MOTION_DDOT":0},{"OBJECT_NAME":"PELICAN-7","OBJECT_ID":"2026-100AP","EPOCH":"2026-07-17T10:15:19.077696","CLASSIFICATION_TYPE":"U","MEAN_MOTION":15.23614969,"ECCENTRICITY":0.0003349,"INCLINATION":97.3852,"RA_OF_ASC_NODE":95.84,"ARG_OF_PERICENTER":88.3203,"MEAN_ANOMALY":271.8417,"EPHEMERIS_TYPE":0,"NORAD_CAT_ID":69017,"ELEMENT_SET_NO":999,"REV_AT_EPOCH":1141,"BSTAR":0.000075225,"MEAN_MOTION_DOT":0.00001731,"MEAN_MOTION_DDOT":0},{"OBJECT_NAME":"PELICAN-9","OBJECT_ID":"2026-100AR","EPOCH":"2026-07-16T16:23:19.783968","CLASSIFICATION_TYPE":"U","MEAN_MOTION":15.22656941,"ECCENTRICITY":0.00022486,"INCLINATION":97.3629,"RA_OF_ASC_NODE":94.9294,"ARG_OF_PERICENTER":111.6096,"MEAN_ANOMALY":248.538,"EPHEMERIS_TYPE":0,"NORAD_CAT_ID":69019,"ELEMENT_SET_NO":999,"REV_AT_EPOCH":1129,"BSTAR":0.000051502935,"MEAN_MOTION_DOT":0.0000113,"MEAN_MOTION_DDOT":0}]}
