PELICAN-1               
1 58296U 23174AS  26197.83856303  .00006429  00000+0  50104-4 0  9992
2 58296  97.4017 300.0203 0005785 199.5806 160.5236 15.72084807150822
PELICAN-2               
1 62631U 25009Y   26198.83185020 -.00000006  00000+0  18223-5 0  9994
2 62631  97.2039 289.3472 0002682 112.6931 247.4600 15.40635100 84275
PELICAN-3               
1 65315U 25188A   26199.15221577  .00005346  00000+0  13037-3 0  9995
2 65315  97.1983 274.8460 0001975 117.9707 242.1740 15.41306176 50081
PELICAN-4               
1 65316U 25188B   26199.17329892  .00004926  00000+0  12407-3 0  9990
2 65316  97.1991 275.0138 0001530  72.5905 287.5509 15.40357139 50089
PELICAN-5               
1 66667U 25276B   26198.45961130  .00010564  00000+0  33735-3 0  9997
2 66667  97.4143 273.4342 0001514  15.2808 344.8479 15.32656374 35156
PELICAN-6               
1 66703U 25276AP  26198.78805216  .00008317  00000+0  27591-3 0  9992
2 66703  97.3719 273.7540 0001858  36.2216 323.9151 15.31500068 35214
PELICAN-7               
1 69017U 26100AP  26198.42730414  .00001731  00000+0  75225-4 0  9999
2 69017  97.3852  95.8400 0003349  88.3203 271.8417 15.23614969 11411
PELICAN-9               
1 69019U 26100AR  26197.68286787  .00001130  00000+0  51503-4 0  9993
2 69019  97.3629  94.9294 0002248 111.6096 248.5380 15.22656941 11294
